[{"OBJECT_NAME":"CONNECTA IOT-11","OBJECT_ID":"2025-135AF","EPOCH":"2026-03-09T19:22:47.918784","MEAN_MOTION":15.20956963,"ECCENTRICITY":0.0001643,"INCLINATION":97.4588,"RA_OF_ASC_NODE":185.0556,"ARG_OF_PERICENTER":46.4014,"MEAN_ANOMALY":313.7358,"EPHEMERIS_TYPE":0,"CLASSIFICATION_TYPE":"U","NORAD_CAT_ID":64557,"ELEMENT_SET_NO":999,"REV_AT_EPOCH":3976,"BSTAR":0.00025659411,"MEAN_MOTION_DOT":5.614e-5,"MEAN_MOTION_DDOT":0},{"OBJECT_NAME":"SITRO-TD-3","OBJECT_ID":"2025-313Y","EPOCH":"2026-03-09T22:34:33.372192","MEAN_MOTION":15.21559953,"ECCENTRICITY":0.00145757,"INCLINATION":97.4011,"RA_OF_ASC_NODE":145.2018,"ARG_OF_PERICENTER":358.2913,"MEAN_ANOMALY":1.827,"EPHEMERIS_TYPE":0,"CLASSIFICATION_TYPE":"U","NORAD_CAT_ID":67270,"ELEMENT_SET_NO":999,"REV_AT_EPOCH":1085,"BSTAR":0.00053243574,"MEAN_MOTION_DOT":0.00011975,"MEAN_MOTION_DDOT":0}]
